{
  "type": "FeatureCollection",
  "features": [
    {
      "type": "Feature",
      "properties": {
        "norad_id": 34350,
        "name": "IRIDIUM 33 DEB",
        "group": "iridium-33-debris",
        "lat": 15.501372722054736,
        "lon": -1.0350955214106359,
        "alt_km": 740.0247304626537,
        "timestamp": "2025-12-23T22:42:33.370585+00:00",
        "meta_object_name": "IRIDIUM 33 DEB",
        "meta_object_id": "1997-051ES",
        "meta_epoch": "2025-12-23T01:18:23.719680",
        "meta_mean_motion": 14.45409977,
        "meta_eccentricity": 0.00234549,
        "meta_inclination": 86.3272,
        "meta_ra_of_asc_node": 358.331,
        "meta_arg_of_pericenter": 103.6059,
        "meta_mean_anomaly": 314.9191,
        "meta_ephemeris_type": 0,
        "meta_classification_type": "U",
        "meta_norad_cat_id": 34350,
        "meta_element_set_no": 999,
        "meta_rev_at_epoch": 88442,
        "meta_bstar": 0.00031237474,
        "meta_mean_motion_dot": 1.122e-05,
        "meta_mean_motion_ddot": 0,
        "tle_line1": "1 34350U 97051ES  25357.05444120  .00001122  00000+0  31237-3 0  9993",
        "tle_line2": "2 34350  86.3272 358.3310 0023454 103.6059 314.9191 14.45409977884424"
      },
      "geometry": {
        "type": "Point",
        "coordinates": [
          -1.0350955214106359,
          15.501372722054736
        ]
      }
    },
    {
      "type": "Feature",
      "properties": {
        "norad_id": 34366,
        "name": "IRIDIUM 33 DEB",
        "group": "iridium-33-debris",
        "lat": -25.873762906548663,
        "lon": 42.67385385707245,
        "alt_km": 728.4457549042118,
        "timestamp": "2025-12-23T22:42:33.370595+00:00",
        "meta_object_name": "IRIDIUM 33 DEB",
        "meta_object_id": "1997-051FJ",
        "meta_epoch": "2025-12-22T10:47:10.372704",
        "meta_mean_motion": 14.54128755,
        "meta_eccentricity": 0.00230356,
        "meta_inclination": 86.3686,
        "meta_ra_of_asc_node": 45.09,
        "meta_arg_of_pericenter": 109.4758,
        "meta_mean_anomaly": 314.4093,
        "meta_ephemeris_type": 0,
        "meta_classification_type": "U",
        "meta_norad_cat_id": 34366,
        "meta_element_set_no": 999,
        "meta_rev_at_epoch": 88323,
        "meta_bstar": 0.000894432,
        "meta_mean_motion_dot": 3.813e-05,
        "meta_mean_motion_ddot": 0,
        "tle_line1": "1 34366U 97051FJ  25356.44942561  .00003813  00000+0  89443-3 0  9995",
        "tle_line2": "2 34366  86.3686  45.0900 0023035 109.4758 314.4093 14.54128755883236"
      },
      "geometry": {
        "type": "Point",
        "coordinates": [
          42.67385385707245,
          -25.873762906548663
        ]
      }
    },
    {
      "type": "Feature",
      "properties": {
        "norad_id": 34375,
        "name": "IRIDIUM 33 DEB",
        "group": "iridium-33-debris",
        "lat": -55.89657649823125,
        "lon": 3.4700653973337676,
        "alt_km": 899.7468013629887,
        "timestamp": "2025-12-23T22:42:33.370606+00:00",
        "meta_object_name": "IRIDIUM 33 DEB",
        "meta_object_id": "1997-051FT",
        "meta_epoch": "2025-12-22T12:02:26.342592",
        "meta_mean_motion": 14.18009533,
        "meta_eccentricity": 0.01037059,
        "meta_inclination": 86.4323,
        "meta_ra_of_asc_node": 178.7659,
        "meta_arg_of_pericenter": 96.2041,
        "meta_mean_anomaly": 329.6113,
        "meta_ephemeris_type": 0,
        "meta_classification_type": "U",
        "meta_norad_cat_id": 34375,
        "meta_element_set_no": 999,
        "meta_rev_at_epoch": 86850,
        "meta_bstar": 0.00038502204,
        "meta_mean_motion_dot": 8.51e-06,
        "meta_mean_motion_ddot": 0,
        "tle_line1": "1 34375U 97051FT  25356.50169378  .00000851  00000+0  38502-3 0  9998",
        "tle_line2": "2 34375  86.4323 178.7659 0103705  96.2041 329.6113 14.18009533868507"
      },
      "geometry": {
        "type": "Point",
        "coordinates": [
          3.4700653973337676,
          -55.89657649823125
        ]
      }
    },
    {
      "type": "Feature",
      "properties": {
        "norad_id": 34376,
        "name": "IRIDIUM 33 DEB",
        "group": "iridium-33-debris",
        "lat": -66.02660106379871,
        "lon": -170.12665546738978,
        "alt_km": 700.6416330484399,
        "timestamp": "2025-12-23T22:42:33.370617+00:00",
        "meta_object_name": "IRIDIUM 33 DEB",
        "meta_object_id": "1997-051FU",
        "meta_epoch": "2025-12-22T17:40:39.041472",
        "meta_mean_motion": 14.62694295,
        "meta_eccentricity": 0.00282683,
        "meta_inclination": 86.2978,
        "meta_ra_of_asc_node": 2.0446,
        "meta_arg_of_pericenter": 133.8099,
        "meta_mean_anomaly": 226.5457,
        "meta_ephemeris_type": 0,
        "meta_classification_type": "U",
        "meta_norad_cat_id": 34376,
        "meta_element_set_no": 999,
        "meta_rev_at_epoch": 88153,
        "meta_bstar": 0.0014444618,
        "meta_mean_motion_dot": 7.418e-05,
        "meta_mean_motion_ddot": 0,
        "tle_line1": "1 34376U 97051FU  25356.73656298  .00007418  00000+0  14445-2 0  9991",
        "tle_line2": "2 34376  86.2978   2.0446 0028268 133.8099 226.5457 14.62694295881534"
      },
      "geometry": {
        "type": "Point",
        "coordinates": [
          -170.12665546738978,
          -66.02660106379871
        ]
      }
    },
    {
      "type": "Feature",
      "properties": {
        "norad_id": 34486,
        "name": "IRIDIUM 33 DEB",
        "group": "iridium-33-debris",
        "lat": 7.690370397418743,
        "lon": 7.338271558149422,
        "alt_km": 577.3705563204312,
        "timestamp": "2025-12-23T22:42:33.370628+00:00",
        "meta_object_name": "IRIDIUM 33 DEB",
        "meta_object_id": "1997-051GB",
        "meta_epoch": "2025-12-22T11:56:52.779840",
        "meta_mean_motion": 14.9620636,
        "meta_eccentricity": 0.00139165,
        "meta_inclination": 86.3926,
        "meta_ra_of_asc_node": 7.5191,
        "meta_arg_of_pericenter": 84.4454,
        "meta_mean_anomaly": 47.0404,
        "meta_ephemeris_type": 0,
        "meta_classification_type": "U",
        "meta_norad_cat_id": 34486,
        "meta_element_set_no": 999,
        "meta_rev_at_epoch": 89132,
        "meta_bstar": 0.002364133,
        "meta_mean_motion_dot": 0.00026794,
        "meta_mean_motion_ddot": 0,
        "tle_line1": "1 34486U 97051GB  25356.49783310  .00026794  00000+0  23641-2 0  9998",
        "tle_line2": "2 34486  86.3926   7.5191 0013916  84.4454  47.0404 14.96206360891322"
      },
      "geometry": {
        "type": "Point",
        "coordinates": [
          7.338271558149422,
          7.690370397418743
        ]
      }
    },
    {
      "type": "Feature",
      "properties": {
        "norad_id": 34487,
        "name": "IRIDIUM 33 DEB",
        "group": "iridium-33-debris",
        "lat": 55.158829984567824,
        "lon": 12.823923832906699,
        "alt_km": 723.976040184787,
        "timestamp": "2025-12-23T22:42:33.370639+00:00",
        "meta_object_name": "IRIDIUM 33 DEB",
        "meta_object_id": "1997-051GC",
        "meta_epoch": "2025-12-23T01:04:13.236960",
        "meta_mean_motion": 14.43228898,
        "meta_eccentricity": 0.00332442,
        "meta_inclination": 86.3429,
        "meta_ra_of_asc_node": 7.9402,
        "meta_arg_of_pericenter": 96.3176,
        "meta_mean_anomaly": 317.7996,
        "meta_ephemeris_type": 0,
        "meta_classification_type": "U",
        "meta_norad_cat_id": 34487,
        "meta_element_set_no": 999,
        "meta_rev_at_epoch": 88397,
        "meta_bstar": 0.00017561183,
        "meta_mean_motion_dot": 6.15e-06,
        "meta_mean_motion_ddot": 0,
        "tle_line1": "1 34487U 97051GC  25357.04459765  .00000615  00000+0  17561-3 0  9994",
        "tle_line2": "2 34487  86.3429   7.9402 0033244  96.3176 317.7996 14.43228898883976"
      },
      "geometry": {
        "type": "Point",
        "coordinates": [
          12.823923832906699,
          55.158829984567824
        ]
      }
    },
    {
      "type": "Feature",
      "properties": {
        "norad_id": 34488,
        "name": "IRIDIUM 33 DEB",
        "group": "iridium-33-debris",
        "lat": -49.454507288605505,
        "lon": -64.05337412818221,
        "alt_km": 475.33499918583584,
        "timestamp": "2025-12-23T22:42:33.370650+00:00",
        "meta_object_name": "IRIDIUM 33 DEB",
        "meta_object_id": "1997-051GD",
        "meta_epoch": "2025-12-22T20:16:29.836992",
        "meta_mean_motion": 15.31851895,
        "meta_eccentricity": 0.00102762,
        "meta_inclination": 86.3272,
        "meta_ra_of_asc_node": 300.8002,
        "meta_arg_of_pericenter": 36.0994,
        "meta_mean_anomaly": 324.0947,
        "meta_ephemeris_type": 0,
        "meta_classification_type": "U",
        "meta_norad_cat_id": 34488,
        "meta_element_set_no": 999,
        "meta_rev_at_epoch": 89394,
        "meta_bstar": 0.0043586742,
        "meta_mean_motion_dot": 0.00136379,
        "meta_mean_motion_ddot": 0,
        "tle_line1": "1 34488U 97051GD  25356.84478978  .00136379  00000+0  43587-2 0  9992",
        "tle_line2": "2 34488  86.3272 300.8002 0010276  36.0994 324.0947 15.31851895893945"
      },
      "geometry": {
        "type": "Point",
        "coordinates": [
          -64.05337412818221,
          -49.454507288605505
        ]
      }
    }
  ]
}